{"type": "FeatureCollection", "features": [ {"type": "Feature", "properties": {"norad_id": 43010, "name": "FENGYUN 3D", "group": "weather", "lat": -75.50279390515831, "lon": 92.84743492691179, "alt_km": 833.5151373677909, "timestamp": "2025-12-10T07:43:54.417466+00:00", "meta": {"OBJECT_NAME": "FENGYUN 3D", "OBJECT_ID": "2017-072A", "EPOCH": "2025-12-09T22:03:36.726048", "MEAN_MOTION": 14.19681218, "ECCENTRICITY": 7.81e-05, "INCLINATION": 98.9892, "RA_OF_ASC_NODE": 310.1867, "ARG_OF_PERICENTER": 191.2917, "MEAN_ANOMALY": 168.8241, "EPHEMERIS_TYPE": 0, "CLASSIFICATION_TYPE": "U", "NORAD_CAT_ID": 43010, "ELEMENT_SET_NO": 999, "REV_AT_EPOCH": 41813, "BSTAR": -4.0978e-05, "MEAN_MOTION_DOT": -1.33e-06, "MEAN_MOTION_DDOT": 0}, "tle": {"line1": "1 43010U 17072A   25343.91917507 -.00000133  00000+0 -40978-4 0  9991", "line2": "2 43010  98.9892 310.1867 0000781 191.2917 168.8241 14.19681218418135"}}, "geometry": {"type": "Point", "coordinates": [92.84743492691179, -75.50279390515831]}}, {"type": "Feature", "properties": {"norad_id": 43013, "name": "NOAA 20 (JPSS-1)", "group": "weather", "lat": 51.37889334035026, "lon": -90.4823409263354, "alt_km": 820.9454182186182, "timestamp": "2025-12-10T07:43:54.417477+00:00", "meta": {"OBJECT_NAME": "NOAA 20 (JPSS-1)", "OBJECT_ID": "2017-073A", "EPOCH": "2025-12-09T19:38:42.034848", "MEAN_MOTION": 14.19524566, "ECCENTRICITY": 0.0002139, "INCLINATION": 98.7595, "RA_OF_ASC_NODE": 280.1473, "ARG_OF_PERICENTER": 91.4496, "MEAN_ANOMALY": 268.6925, "EPHEMERIS_TYPE": 0, "CLASSIFICATION_TYPE": "U", "NORAD_CAT_ID": 43013, "ELEMENT_SET_NO": 999, "REV_AT_EPOCH": 41760, "BSTAR": 0.00010862, "MEAN_MOTION_DOT": 1.85e-06, "MEAN_MOTION_DDOT": 0}, "tle": {"line1": "1 43013U 17073A   25343.81854207  .00000185  00000+0  10862-3 0  9994", "line2": "2 43013  98.7595 280.1473 0002139  91.4496 268.6925 14.19524566417608"}}, "geometry": {"type": "Point", "coordinates": [-90.4823409263354, 51.37889334035026]}}, {"type": "Feature", "properties": {"norad_id": 43226, "name": "GOES 17", "group": "weather", "lat": 0.1462830474483882, "lon": 105.77053457441609, "alt_km": 35800.24023933275, "timestamp": "2025-12-10T07:43:54.417490+00:00", "meta": {"OBJECT_NAME": "GOES 17", "OBJECT_ID": "2018-022A", "EPOCH": "2025-12-09T17:17:19.199040", "MEAN_MOTION": 1.0027166, "ECCENTRICITY": 0.000339, "INCLINATION": 0.4523, "RA_OF_ASC_NODE": 89.1533, "ARG_OF_PERICENTER": 186.3266, "MEAN_ANOMALY": 333.0613, "EPHEMERIS_TYPE": 0, "CLASSIFICATION_TYPE": "U", "NORAD_CAT_ID": 43226, "ELEMENT_SET_NO": 999, "REV_AT_EPOCH": 2852, "BSTAR": 0, "MEAN_MOTION_DOT": -1.8e-06, "MEAN_MOTION_DDOT": 0}, "tle": {"line1": "1 43226U 18022A   25343.72036110 -.00000180  00000+0  00000+0 0  9995", "line2": "2 43226   0.4523  89.1533 0003390 186.3266 333.0613  1.00271660 28528"}}, "geometry": {"type": "Point", "coordinates": [105.77053457441609, 0.1462830474483882]}}, {"type": "Feature", "properties": {"norad_id": 43491, "name": "FENGYUN 2H", "group": "weather", "lat": -0.6041520944876217, "lon": -85.35967678993173, "alt_km": 35775.403012671864, "timestamp": "2025-12-10T07:43:54.417503+00:00", "meta": {"OBJECT_NAME": "FENGYUN 2H", "OBJECT_ID": "2018-050A", "EPOCH": "2025-12-09T19:05:09.222432", "MEAN_MOTION": 1.00271057, "ECCENTRICITY": 0.0002945, "INCLINATION": 2.5431, "RA_OF_ASC_NODE": 81.3522, "ARG_OF_PERICENTER": 164.9278, "MEAN_ANOMALY": 198.1502, "EPHEMERIS_TYPE": 0, "CLASSIFICATION_TYPE": "U", "NORAD_CAT_ID": 43491, "ELEMENT_SET_NO": 999, "REV_AT_EPOCH": 2754, "BSTAR": 0, "MEAN_MOTION_DOT": -1.27e-06, "MEAN_MOTION_DDOT": 0}, "tle": {"line1": "1 43491U 18050A   25343.79524563 -.00000127  00000+0  00000+0 0  9992", "line2": "2 43491   2.5431  81.3522 0002945 164.9278 198.1502  1.00271057 27543"}}, "geometry": {"type": "Point", "coordinates": [-85.35967678993173, -0.6041520944876217]}}, {"type": "Feature", "properties": {"norad_id": 43689, "name": "METOP-C", "group": "weather", "lat": 3.5362425245169598, "lon": -137.32949501399187, "alt_km": 823.3756045352402, "timestamp": "2025-12-10T07:43:54.417514+00:00", "meta": {"OBJECT_NAME": "METOP-C", "OBJECT_ID": "2018-087A", "EPOCH": "2025-12-09T19:04:48.173664", "MEAN_MOTION": 14.21510269, "ECCENTRICITY": 0.0001465, "INCLINATION": 98.6934, "RA_OF_ASC_NODE": 41.6097, "ARG_OF_PERICENTER": 47.4679, "MEAN_ANOMALY": 312.6622, "EPHEMERIS_TYPE": 0, "CLASSIFICATION_TYPE": "U", "NORAD_CAT_ID": 43689, "ELEMENT_SET_NO": 999, "REV_AT_EPOCH": 36792, "BSTAR": 0.00013657, "MEAN_MOTION_DOT": 2.55e-06, "MEAN_MOTION_DDOT": 0}, "tle": {"line1": "1 43689U 18087A   25343.79500201  .00000255  00000+0  13657-3 0  9991", "line2": "2 43689  98.6934  41.6097 0001465  47.4679 312.6622 14.21510269367921"}}, "geometry": {"type": "Point", "coordinates": [-137.32949501399187, 3.5362425245169598]}}, {"type": "Feature", "properties": {"norad_id": 43823, "name": "GEO-KOMPSAT-2A", "group": "weather", "lat": -0.017119375242147877, "lon": -36.464414673012776, "alt_km": 35787.12556646683, "timestamp": "2025-12-10T07:43:54.417525+00:00", "meta": {"OBJECT_NAME": "GEO-KOMPSAT-2A", "OBJECT_ID": "2018-100A", "EPOCH": "2025-12-09T14:54:14.532192", "MEAN_MOTION": 1.00269952, "ECCENTRICITY": 1.3e-05, "INCLINATION": 0.0412, "RA_OF_ASC_NODE": 146.0636, "ARG_OF_PERICENTER": 36.3547, "MEAN_ANOMALY": 248.0171, "EPHEMERIS_TYPE": 0, "CLASSIFICATION_TYPE": "U", "NORAD_CAT_ID": 43823, "ELEMENT_SET_NO": 999, "REV_AT_EPOCH": 2572, "BSTAR": 0, "MEAN_MOTION_DOT": -3.41e-06, "MEAN_MOTION_DDOT": 0}, "tle": {"line1": "1 43823U 18100A   25343.62100153 -.00000341  00000+0  00000+0 0  9992", "line2": "2 43823   0.0412 146.0636 0000130  36.3547 248.0171  1.00269952 25720"}}, "geometry": {"type": "Point", "coordinates": [-36.464414673012776, -0.017119375242147877]}}, {"type": "Feature", "properties": {"norad_id": 44387, "name": "METEOR-M2 2", "group": "weather", "lat": -45.3356416981406, "lon": 134.90154468695098, "alt_km": 817.3275100018936, "timestamp": "2025-12-10T07:43:54.417536+00:00", "meta": {"OBJECT_NAME": "METEOR-M2 2", "OBJECT_ID": "2019-038A", "EPOCH": "2025-12-09T20:33:29.465856", "MEAN_MOTION": 14.24289646, "ECCENTRICITY": 0.0001144, "INCLINATION": 98.8971, "RA_OF_ASC_NODE": 323.5496, "ARG_OF_PERICENTER": 154.5006, "MEAN_ANOMALY": 205.6229, "EPHEMERIS_TYPE": 0, "CLASSIFICATION_TYPE": "U", "NORAD_CAT_ID": 44387, "ELEMENT_SET_NO": 999, "REV_AT_EPOCH": 33434, "BSTAR": 0.00016487, "MEAN_MOTION_DOT": 3.35e-06, "MEAN_MOTION_DDOT": 0}, "tle": {"line1": "1 44387U 19038A   25343.85659104  .00000335  00000+0  16487-3 0  9991", "line2": "2 44387  98.8971 323.5496 0001144 154.5006 205.6229 14.24289646334342"}}, "geometry": {"type": "Point", "coordinates": [134.90154468695098, -45.3356416981406]}}, {"type": "Feature", "properties": {"norad_id": 47719, "name": "ARKTIKA-M 1", "group": "weather", "lat": 63.17314797787934, "lon": 176.31294024081853, "alt_km": 39217.735230012346, "timestamp": "2025-12-10T07:43:54.417550+00:00", "meta": {"OBJECT_NAME": "ARKTIKA-M 1", "OBJECT_ID": "2021-016A", "EPOCH": "2025-12-09T14:03:23.859648", "MEAN_MOTION": 2.00631311, "ECCENTRICITY": 0.7202538, "INCLINATION": 63.1769, "RA_OF_ASC_NODE": 84.4506, "ARG_OF_PERICENTER": 269.1116, "MEAN_ANOMALY": 15.6235, "EPHEMERIS_TYPE": 0, "CLASSIFICATION_TYPE": "U", "NORAD_CAT_ID": 47719, "ELEMENT_SET_NO": 999, "REV_AT_EPOCH": 3498, "BSTAR": 0, "MEAN_MOTION_DOT": -6.1e-07, "MEAN_MOTION_DDOT": 0}, "tle": {"line1": "1 47719U 21016A   25343.58569282 -.00000061  00000+0  00000+0 0  9996", "line2": "2 47719  63.1769  84.4506 7202538 269.1116  15.6235  2.00631311 34985"}}, "geometry": {"type": "Point", "coordinates": [176.31294024081853, 63.17314797787934]}}, {"type": "Feature", "properties": {"norad_id": 49008, "name": "FENGYUN 3E", "group": "weather", "lat": -43.0541139466044, "lon": 156.60091432617142, "alt_km": 832.1632566793296, "timestamp": "2025-12-10T07:43:54.417561+00:00", "meta": {"OBJECT_NAME": "FENGYUN 3E", "OBJECT_ID": "2021-062A", "EPOCH": "2025-12-09T20:32:03.916032", "MEAN_MOTION": 14.19878696, "ECCENTRICITY": 6.02e-05, "INCLINATION": 98.7474, "RA_OF_ASC_NODE": 344.4105, "ARG_OF_PERICENTER": 287.5498, "MEAN_ANOMALY": 72.5613, "EPHEMERIS_TYPE": 0, "CLASSIFICATION_TYPE": "U", "NORAD_CAT_ID": 49008, "ELEMENT_SET_NO": 999, "REV_AT_EPOCH": 22971, "BSTAR": 1.1488e-05, "MEAN_MOTION_DOT": -2e-07, "MEAN_MOTION_DDOT": 0}, "tle": {"line1": "1 49008U 21062A   25343.85560088 -.00000020  00000+0  11488-4 0  9997", "line2": "2 49008  98.7474 344.4105 0000602 287.5498  72.5613 14.19878696229718"}}, "geometry": {"type": "Point", "coordinates": [156.60091432617142, -43.0541139466044]}}, {"type": "Feature", "properties": {"norad_id": 51850, "name": "GOES 18", "group": "weather", "lat": 0.008732618376575246, "lon": 58.272859721981646, "alt_km": 35787.93886700089, "timestamp": "2025-12-10T07:43:54.417573+00:00", "meta": {"OBJECT_NAME": "GOES 18", "OBJECT_ID": "2022-021A", "EPOCH": "2025-12-09T14:38:01.585248", "MEAN_MOTION": 1.00269526, "ECCENTRICITY": 6.36e-05, "INCLINATION": 0.0225, "RA_OF_ASC_NODE": 211.3459, "ARG_OF_PERICENTER": 88.2665, "MEAN_ANOMALY": 221.4902, "EPHEMERIS_TYPE": 0, "CLASSIFICATION_TYPE": "U", "NORAD_CAT_ID": 51850, "ELEMENT_SET_NO": 999, "REV_AT_EPOCH": 469, "BSTAR": 0, "MEAN_MOTION_DOT": 9.9e-07, "MEAN_MOTION_DDOT": 0}, "tle": {"line1": "1 51850U 22021A   25343.60974057  .00000099  00000+0  00000+0 0  9997", "line2": "2 51850   0.0225 211.3459 0000636  88.2665 221.4902  1.00269526  4695"}}, "geometry": {"type": "Point", "coordinates": [58.272859721981646, 0.008732618376575246]}}]}